[{"OBJECT_NAME":"STARLINK-6053","OBJECT_ID":"2023-064U","EPOCH":"2026-03-09T22:00:01.999584","MEAN_MOTION":14.98333996,"ECCENTRICITY":0.00031372,"INCLINATION":70.0004,"RA_OF_ASC_NODE":143.7529,"ARG_OF_PERICENTER":271.4983,"MEAN_ANOMALY":77.4666,"EPHEMERIS_TYPE":0,"CLASSIFICATION_TYPE":"U","NORAD_CAT_ID":56466,"ELEMENT_SET_NO":999,"REV_AT_EPOCH":575,"BSTAR":-0.0015211269,"MEAN_MOTION_DOT":-0.00018198,"MEAN_MOTION_DDOT":0},{"OBJECT_NAME":"CZ-6A DEB","OBJECT_ID":"2024-140ACV","EPOCH":"2026-03-09T14:12:17.134272","MEAN_MOTION":14.90958508,"ECCENTRICITY":0.0072596,"INCLINATION":89.2243,"RA_OF_ASC_NODE":297.3941,"ARG_OF_PERICENTER":114.4317,"MEAN_ANOMALY":246.4509,"EPHEMERIS_TYPE":0,"CLASSIFICATION_TYPE":"U","NORAD_CAT_ID":61829,"ELEMENT_SET_NO":999,"REV_AT_EPOCH":7741,"BSTAR":0.0037165,"MEAN_MOTION_DOT":0.00038761,"MEAN_MOTION_DDOT":0}]
